{
    "links": {
        "self": "http://www.neowsapp.com/rest/v1/neo/3785921?api_key=iIulBulltgU6a56xZRHN4H3l9WmuAYTsLGpBGhQ2"
    },
    "id": "3785921",
    "neo_reference_id": "3785921",
    "name": "(2017 TP5)",
    "designation": "2017 TP5",
    "nasa_jpl_url": "http://ssd.jpl.nasa.gov/sbdb.cgi?sstr=3785921",
    "absolute_magnitude_h": 24.8,
    "estimated_diameter": {
        "kilometers": {
            "estimated_diameter_min": 0.0291443905,
            "estimated_diameter_max": 0.0651688382
        },
        "meters": {
            "estimated_diameter_min": 29.1443904535,
            "estimated_diameter_max": 65.1688382168
        },
        "miles": {
            "estimated_diameter_min": 0.018109479,
            "estimated_diameter_max": 0.0404940262
        },
        "feet": {
            "estimated_diameter_min": 95.6180819754,
            "estimated_diameter_max": 213.8085311752
        }
    },
    "is_potentially_hazardous_asteroid": false,
    "close_approach_data": [
        {
            "close_approach_date": "2017-10-10",
            "close_approach_date_full": "2017-Oct-10 02:05",
            "epoch_date_close_approach": 1507601100000,
            "relative_velocity": {
                "kilometers_per_second": "12.7716629783",
                "kilometers_per_hour": "45977.9867219628",
                "miles_per_hour": "28568.9329162107"
            },
            "miss_distance": {
                "astronomical": "0.0705698061",
                "lunar": "27.4516545729",
                "kilometers": "10557092.678873007",
                "miles": "6559873.2052892166"
            },
            "orbiting_body": "Earth"
        }
    ],
    "orbital_data": {
        "orbit_id": "3",
        "orbit_determination_date": "2017-10-31 06:19:22",
        "first_observation_date": "2017-10-14",
        "last_observation_date": "2017-10-30",
        "data_arc_in_days": 16,
        "observations_used": 37,
        "orbit_uncertainty": "8",
        "minimum_orbit_intersection": ".0538107",
        "jupiter_tisserand_invariant": "3.915",
        "epoch_osculation": "2458042.5",
        "eccentricity": ".4818663157721115",
        "semi_major_axis": "1.792047874659539",
        "inclination": "10.46474988339496",
        "ascending_node_longitude": "207.0704087023813",
        "orbital_period": "876.2395233025261",
        "perihelion_distance": ".9285203676101041",
        "perihelion_argument": "120.2342099336553",
        "aphelion_distance": "2.655575381708973",
        "perihelion_time": "2457999.082058711949",
        "mean_anomaly": "17.83811212348369",
        "mean_motion": ".4108465669788193",
        "equinox": "J2000",
        "orbit_class": {
            "orbit_class_type": "APO",
            "orbit_class_description": "Near-Earth asteroid orbits which cross the Earth’s orbit similar to that of 1862 Apollo",
            "orbit_class_range": "a (semi-major axis) > 1.0 AU; q (perihelion) < 1.017 AU"
        }
    },
    "is_sentry_object": false
}